#dP2024  8  7  0  0  0.00000000      96 __u+U IGS20 EXT  IAC
## 2326 259200.00000000   900.00000000 60529 0.0000000000000
+   53   G02G03G04G05G06G07G08G09G10G11G12G13G14G15G16G17G18
+        G19G20G21G22G23G24G25G26G27G28G29G30G31G32R01R02R03
+        R04R05R07R08R09R11R12R14R15R16R17R18R19R20R21R22R24
+        R25R26  0  0  0  0  0  0  0  0  0  0  0  0  0  0  0
+          0  0  0  0  0  0  0  0  0  0  0  0  0  0  0  0  0
++         7  8  7  7  7  7  7  8  8  9  9  8  7  8  6  8  9
++         8  8  7  8  9  8  7  8  7  9  7  8  7  9  7  7  9
++         8  8  7  9  7  8  7  7  7  8  8  7  8 10  7  8  7
++         7  8  0  0  0  0  0  0  0  0  0  0  0  0  0  0  0
++         0  0  0  0  0  0  0  0  0  0  0  0  0  0  0  0  0
%c M  cc GPS ccc cccc cccc cccc cccc ccccc ccccc ccccc ccccc
%c cc cc ccc ccc cccc cccc cccc cccc ccccc ccccc ccccc ccccc
%f  0.0000000  0.000000000  0.00000000000  0.000000000000000
%f  0.0000000  0.000000000  0.00000000000  0.000000000000000
%i    0    0    0    0      0      0      0      0         0
%i    0    0    0    0      0      0      0      0         0
/* IAC                                ULTRA-RAPID PREDICTION
/* S/V CLOCKS ARE ALIGNED TO GNSS TIME                      
/* G:C1WC2W R:C1PC2P E:C1XC5X C:C2IC6I J:C1CC2S             
/* PCV:IGS20_2317 OL/AL:FES2004  NONE     YN ORB:CoN CLK:CoN
*  2024 08 07 19  0  0.00000000
PG02 -14422.918740  20245.337031   9364.731889   -383.582472
PG03 -16296.492762  12531.932743 -16917.809897    490.815641
PG04  -6851.194905  15468.360890 -20425.711587    419.607741
PG05  25959.408874  -5141.044845   2519.065007   -182.426701
PG06   9301.855519  12757.269707 -21275.576518    113.045515
PG07  -3875.653731  24385.116793   9665.733908    -55.561230
PG08 -15170.320445   4890.242584  21188.690206    306.590307
PG09   3965.598362  22183.193441 -14101.618961    304.790344
PG10 -16132.262608 -10946.400267  18399.614278    -87.390361
PG11  16874.826984  -1751.337915 -20394.285992   -717.950068
PG12  19415.768381 -10661.742978 -14899.163146   -528.551782
PG13  17290.098875   4998.228708  19393.789665    669.420667
PG14  12129.363187  13438.584243  19548.914939    467.113506
PG15  14318.301778  -7084.688307  20729.687918    189.980609
PG16 -26788.596519   -737.815153   -894.643041   -214.919905
PG17  13229.837370  22921.743705    851.598298    660.264124
PG18   4412.877610 -24125.607173   9930.830816   -644.151678
PG19  17024.185434  18922.686811  -8464.536902    521.417506
PG20  25173.055381   -758.216345  -8125.061406    371.924371
PG21 -16045.964653  15438.506716  14052.330017    104.289376
PG22  18923.208841  10876.859573  15342.700630    -48.686297
PG23  -2687.121921 -14590.104835  22059.901421    292.029936
PG24  14682.641944 -19282.732044   9939.777811   -485.702492
PG25   7929.618217 -15455.040854 -20362.579272    499.146216
PG26 -22672.715360  -6018.579810 -12957.850682    105.068986
PG27 -19271.913728  -6900.453589  16858.077031    -32.674747
PG28  -8760.341181 -15027.854536 -20081.704613   -363.387849
PG29    886.398722 -20786.251873 -16479.425208   -585.367161
PG30   4709.186738  19710.412575  17182.804429   -344.068611
PG31 -15561.271266  -3045.056960 -21571.973039   -226.093175
PG32 -15782.375574 -21481.570927   -672.933267   -607.409219
PR01 -19988.465668 -15208.099954   4415.685799     93.803257
PR02 -21026.938485  -7631.538246 -12282.337426    -24.022615
PR03 -10813.759907   5359.668280 -22438.168095    105.203528
PR04   5036.158443  14799.090696 -20126.701753    248.860764
PR05  18078.262265  16553.488260  -7009.066675    135.732199
PR07  10178.531921  -5904.631491  22661.364330     88.324017
PR08  -5331.992366 -14960.545091  20027.805545     -6.296896
PR09  22178.345099  -5202.684275  11588.120646    202.086956
PR11   9522.301098 -14639.004796 -18586.208552     15.637552
PR12 -10241.302067  -6890.087532 -22293.357616     43.373022
PR14 -20951.012687  13490.163647   5415.614130     26.790134
PR15  -7909.277815  14383.217171  19546.494307     77.088822
PR16  10042.317975   6845.571416  22447.535267     28.056699
PR17  -8763.622040  17815.734031  16051.676226    111.523555
PR18  -2703.931144  25328.181412    908.003421    155.893604
PR19   3434.613018  21421.774893 -13429.780739   -286.718891
PR20  10271.620118   1629.094928 -23285.428159   -117.300374
PR21   9003.841053 -17239.856418 -16484.754346   -124.060611
PR22   2742.444081 -25360.889505    366.019028     74.036745
PR24 -10876.457553   -602.761909  23079.654566    -66.880103
PR25   9564.712230 -17655.527223 -15710.197776    -99.756417
PR26  -4032.279213 -14361.335107  20701.798993      8.440557
*  2024 08 07 19 15  0.00000000
PG02 -14260.557889  19073.754346  11890.356059   -383.575671
PG03 -18092.104412  12600.259675 -14891.680059    490.829279
PG04  -8270.370405  13544.343924 -21261.608813    419.614496
PG05  26136.631109  -4949.534572   -351.210180   -182.427932
PG06   8262.989521  14905.999631 -20278.029503    113.023881
PG07  -4498.197650  25101.301173   7025.422562    -55.555596
PG08 -16627.438229   2979.039443  20479.850818    306.603735
PG09   2758.799282  20944.209784 -16152.742701    304.804219
PG10 -14020.603714 -11261.943637  19867.894960    -87.400023
PG11  15892.281696    425.565803 -21241.315001   -717.955338
PG12  20960.956234 -10540.930487 -12680.971017   -528.554504
PG13  18226.720698   6953.915137  17914.137545    669.422692
PG14   9861.746037  13746.679699  20565.620166    467.121382
PG15  16005.237317  -5314.449031  20046.820697    189.984450
PG16 -26571.167602   -962.006927  -3709.044753   -214.910456
PG17  12906.877598  22873.914781   3716.106400    660.255944
PG18   5015.346027 -24935.185521   7267.658949   -644.154715
PG19  17259.669225  19696.125448  -5774.289083    521.422207
PG20  24204.142895   -195.577122 -10691.781830    371.923997
PG21 -15739.526289  13748.878151  16155.975367    104.287400
PG22  17121.160197  11099.621974  17259.449015    -48.690117
PG23   -201.496191 -14934.018991  21973.668340    292.037773
PG24  14574.255927 -17897.772835  12339.322281   -485.703243
PG25  10133.816819 -15626.087996 -19178.028338    499.146441
PG26 -21175.199515  -6554.136348 -15051.589870    105.062265
PG27 -20263.940542  -8472.970450  14937.210650    -32.675300
PG28  -7838.844665 -17053.633186 -18802.911076   -363.401489
PG29   2065.853965 -19188.687146 -18234.616928   -585.365243
PG30   3769.666219  21322.940202  15353.207340   -344.062559
PG31 -14553.653878  -5261.430099 -21815.377732   -226.092876
PG32 -15558.366921 -21573.293818   2173.509902   -607.406898
PR01 -19426.244101 -14710.412112   7518.732280     93.804342
PR02 -22241.221376  -8231.256171  -9442.245017    -24.022754
PR03 -13140.329531   3950.927696 -21474.587189    105.204159
PR04   2912.426367  13336.294929 -21519.754781    248.862416
PR05  17286.574740  15839.973889 -10011.340978    135.732761
PR07  12513.430293  -4477.169815  21797.394352     88.324785
PR08  -3221.121316 -13534.862120  21443.549588     -6.296960
PR09  20763.237505  -4487.106700  14209.984735    202.088623
PR11  11383.972259 -15754.293768 -16515.245914     15.636433
PR12  -7767.740463  -8185.204520 -22846.098771     43.373458
PR14 -21311.154766  13814.668522   2262.604838     26.790210
PR15  -9895.753386  15527.098199  17673.727832     77.088516
PR16   7566.431564   8150.397961  22973.751819     28.057011
PR17  -8537.416925  15710.072785  18222.047140    111.526591
PR18  -2484.221891  25030.337922   4130.597425    155.895456
PR19   3492.293539  22920.460011 -10654.659830   -286.720063
PR20  10030.780531   4482.042801 -23012.102681   -117.300734
PR21   8756.528083 -15081.602823 -18601.301517   -124.063403
PR22   2580.653505 -25217.732220  -2842.090586     74.030017
PR24 -10758.571463  -3433.229831  22884.324964    -66.881454
PR25   9291.941253 -15595.241044 -17902.979012    -99.757519
PR26  -1836.106485 -12916.111832  21931.412665      8.442464
EOF
